OBJECT_NAME,OBJECT_ID,EPOCH,MEAN_MOTION,ECCENTRICITY,INCLINATION,RA_OF_ASC_NODE,ARG_OF_PERICENTER,MEAN_ANOMALY,EPHEMERIS_TYPE,CLASSIFICATION_TYPE,NORAD_CAT_ID,ELEMENT_SET_NO,REV_AT_EPOCH,BSTAR,MEAN_MOTION_DOT,MEAN_MOTION_DDOT,sigma_x,sigma_y,sigma_z
STARLINK-30364,2023-131K,2025-07-31T21:53:59.422848,15.02532918,9.75e-05,43.0028,291.4261,269.4346,90.6385,0,U,57741,999,10671,-2.2691e-06,-2.34e-06,0.0,0.5,0.5,0.5
STARLINK-30308,2023-131L,2025-07-31T22:13:10.492896,15.02541734,0.0001458,43.0035,291.5265,276.6935,83.3741,0,U,57742,999,10672,0.00012371,1.468e-05,0.0,0.5,0.5,0.5
STARLINK-30361,2023-131M,2025-07-31T13:50:33.365184,15.02534498,0.0001257,43.0026,293.2084,276.2769,83.793,0,U,57743,999,10666,-4.6446e-06,-2.66e-06,0.0,0.5,0.5,0.5
STARLINK-30363,2023-131N,2025-07-31T12:47:12.408000,15.02533855,0.0001244,43.0032,280.9593,268.2953,91.7747,0,U,57744,999,10680,5.7177e-05,5.69e-06,0.0,0.5,0.5,0.5
STARLINK-30362,2023-131P,2025-07-31T12:10:02.466336,15.02501474,9.84e-05,43.0029,293.5435,275.658,84.415,0,U,57745,999,10665,0.00051848,6.801e-05,0.0,0.5,0.5,0.5
STARLINK-30350,2023-131Q,2025-08-01T04:50:27.704256,15.02537786,8.36e-05,43.0011,290.1376,269.5374,90.5373,0,U,57746,999,10674,-2.3335e-05,-5.19e-06,0.0,0.5,0.5,0.5
STARLINK-30307,2023-131R,2025-07-31T12:11:37.689504,15.02536579,0.0001106,43.0032,293.5498,270.2441,89.8274,0,U,57747,999,10665,4.4232e-06,-1.44e-06,0.0,0.5,0.5,0.5
STARLINK-30356,2023-131S,2025-07-31T13:36:10.220544,15.02533428,0.0001218,43.0034,293.1306,278.0123,82.0581,0,U,57748,999,10666,2.9618e-05,1.96e-06,0.0,0.5,0.5,0.5
STARLINK-30366,2023-131T,2025-07-31T22:41:45.846528,15.02539054,0.000119,43.0041,290.8106,265.4424,94.6282,0,U,57749,999,10672,5.0851e-05,4.83e-06,0.0,0.5,0.5,0.5
STARLINK-30357,2023-131U,2025-08-01T05:19:03.820800,15.02535258,0.0001168,43.0033,289.442,277.5052,82.5658,0,U,57750,999,10665,3.6009e-05,2.83e-06,0.0,0.5,0.5,0.5
STARLINK-30370,2023-131V,2025-07-31T12:42:24.868800,15.02538507,0.0001251,43.003,280.97,273.5932,86.4768,0,U,57751,999,10680,4.0437e-05,3.43e-06,0.0,0.5,0.5,0.5
STARLINK-30368,2023-131W,2025-07-31T21:58:46.733088,15.02535378,0.0001235,43.0029,291.4181,274.5858,85.4844,0,U,57752,999,10670,5.5422e-05,5.45e-06,0.0,0.5,0.5,0.5
STARLINK-30343,2023-131X,2025-08-01T05:23:51.397152,15.02537843,9.71e-05,43.0036,289.4685,263.9732,96.1,0,U,57753,999,10665,5.1691e-05,4.95e-06,0.0,0.5,0.5,0.5
STARLINK-30397,2023-134A,2025-07-31T15:06:24.754752,15.0254818,0.0001263,43.0039,319.0684,271.4795,88.5903,0,U,57771,999,10621,-1.408e-05,-3.94e-06,0.0,0.5,0.5,0.5
STARLINK-30354,2023-134B,2025-07-31T18:36:53.317440,15.0253454,0.0001507,43.0046,317.5818,252.8547,107.213,0,U,57772,999,10624,3.8085e-05,3.11e-06,0.0,0.5,0.5,0.5
STARLINK-30383,2023-134C,2025-07-31T18:13:08.525280,15.02503372,2.2e-05,42.999,318.3202,199.5971,160.4863,0,U,57773,999,10623,-0.00024933,-3.567e-05,0.0,0.5,0.5,0.5
STARLINK-30384,2023-134D,2025-07-31T14:52:02.404128,15.02535557,0.0001353,43.0042,318.9931,263.849,96.2198,0,U,57774,999,10621,-3.379e-05,-6.6e-06,0.0,0.5,0.5,0.5
STARLINK-30305,2023-134E,2025-07-31T14:56:49.573536,15.02539837,0.0001251,43.0033,319.0197,273.5898,86.4801,0,U,57775,999,10621,4.3891e-05,3.89e-06,0.0,0.5,0.5,0.5
STARLINK-30360,2023-134F,2025-07-31T17:58:41.436480,15.02542039,0.0001122,43.0031,318.2456,267.8934,92.178,0,U,57776,999,10623,1.1877e-06,-1.88e-06,0.0,0.5,0.5,0.5
STARLINK-30355,2023-134G,2025-07-31T14:37:38.892288,15.02532046,8.34e-05,43.0031,318.8905,145.8969,214.1927,0,U,57777,999,10620,7.6839e-05,8.34e-06,0.0,0.5,0.5,0.5
STARLINK-30385,2023-134H,2025-07-31T23:05:28.721472,15.02494149,9.65e-05,43.0033,304.4103,285.0551,75.0184,0,U,57778,999,10625,0.00098457,0.00013106,0.0,0.5,0.5,0.5
STARLINK-30359,2023-134J,2025-07-31T22:55:53.106528,15.02532243,7.32e-05,43.0021,304.3953,280.4006,79.6754,0,U,57779,999,10624,-9.7444e-06,-3.35e-06,0.0,0.5,0.5,0.5
STARLINK-30380,2023-134K,2025-07-31T15:35:00.464352,15.02574415,0.0001732,43.005,318.3499,262.392,97.6726,0,U,57780,999,10622,-0.0005771,-7.999e-05,0.0,0.5,0.5,0.5
STARLINK-30369,2023-134L,2025-07-31T14:32:51.358272,15.02526567,6.86e-05,43.0035,318.8816,249.4003,110.6765,0,U,57781,999,10621,0.00016903,2.08e-05,0.0,0.5,0.5,0.5
STARLINK-30376,2023-134M,2025-07-31T15:39:49.321152,15.0253218,0.0001391,43.0047,318.3878,276.622,83.4464,0,U,57782,999,10622,3.4276e-05,2.59e-06,0.0,0.5,0.5,0.5
STARLINK-30389,2023-134N,2025-07-31T14:23:15.839232,15.02550473,7.51e-05,43.0029,318.8431,245.3757,114.7007,0,U,57783,999,10597,2.212e-05,9.5e-07,0.0,0.5,0.5,0.5
STARLINK-30388,2023-134P,2025-07-31T14:18:28.430496,15.02536548,0.0001301,43.0042,318.8174,265.8755,94.1939,0,U,57784,999,10621,3.9879e-05,3.35e-06,0.0,0.5,0.5,0.5
STARLINK-30381,2023-134Q,2025-07-31T23:19:15.864960,15.02530532,0.0001577,43.0057,316.3817,261.5692,98.4972,0,U,57785,999,10620,-7.3759e-05,-1.2e-05,0.0,0.5,0.5,0.5
STARLINK-30382,2023-134R,2025-07-31T14:13:40.825632,15.02534079,7.23e-05,43.0038,318.7936,253.7629,106.3134,0,U,57786,999,10597,9.986e-06,-6.9e-07,0.0,0.5,0.5,0.5
