STARLINK-30364          
1 57741U 23131K   25212.91249332 -.00000234  00000+0 -22691-5 0  9994
2 57741  43.0028 291.4261 0000975 269.4346  90.6385 15.02532918106715
STARLINK-30308          
1 57742U 23131L   25212.92581589  .00001468  00000+0  12371-3 0  9999
2 57742  43.0035 291.5265 0001458 276.6935  83.3741 15.02541734106722
STARLINK-30361          
1 57743U 23131M   25212.57677506 -.00000266  00000+0 -46446-5 0  9995
2 57743  43.0026 293.2084 0001257 276.2769  83.7930 15.02534498106665
STARLINK-30363          
1 57744U 23131N   25212.53278250  .00000569  00000+0  57177-4 0  9991
2 57744  43.0032 280.9593 0001244 268.2953  91.7747 15.02533855106800
STARLINK-30362          
1 57745U 23131P   25212.50697299  .00006801  00000+0  51848-3 0  9990
2 57745  43.0029 293.5435 0000984 275.6580  84.4150 15.02501474106652
STARLINK-30350          
1 57746U 23131Q   25213.20170954 -.00000519  00000+0 -23335-4 0  9996
2 57746  43.0011 290.1376 0000836 269.5374  90.5373 15.02537786106740
STARLINK-30307          
1 57747U 23131R   25212.50807511 -.00000144  00000+0  44232-5 0  9998
2 57747  43.0032 293.5498 0001106 270.2441  89.8274 15.02536579106651
STARLINK-30356          
1 57748U 23131S   25212.56678496  .00000196  00000+0  29618-4 0  9999
2 57748  43.0034 293.1306 0001218 278.0123  82.0581 15.02533428106662
STARLINK-30366          
1 57749U 23131T   25212.94566952  .00000483  00000+0  50851-4 0  9997
2 57749  43.0041 290.8106 0001190 265.4424  94.6282 15.02539054106721
STARLINK-30357          
1 57750U 23131U   25213.22157200  .00000283  00000+0  36009-4 0  9990
2 57750  43.0033 289.4420 0001168 277.5052  82.5658 15.02535258106650
STARLINK-30370          
1 57751U 23131V   25212.52945450  .00000343  00000+0  40437-4 0  9992
2 57751  43.0030 280.9700 0001251 273.5932  86.4768 15.02538507106803
STARLINK-30368          
1 57752U 23131W   25212.91581867  .00000545  00000+0  55422-4 0  9998
2 57752  43.0029 291.4181 0001235 274.5858  85.4844 15.02535378106708
STARLINK-30343          
1 57753U 23131X   25213.22490043  .00000495  00000+0  51691-4 0  9997
2 57753  43.0036 289.4685 0000971 263.9732  96.1000 15.02537843106658
STARLINK-30397          
1 57771U 23134A   25212.62945318 -.00000394  00000+0 -14080-4 0  9994
2 57771  43.0039 319.0684 0001263 271.4795  88.5903 15.02548180106213
STARLINK-30354          
1 57772U 23134B   25212.77561710  .00000311  00000+0  38085-4 0  9999
2 57772  43.0046 317.5818 0001507 252.8547 107.2130 15.02534540106242
STARLINK-30383          
1 57773U 23134C   25212.75912645 -.00003567  00000+0 -24933-3 0  9999
2 57773  42.9990 318.3202 0000220 199.5971 160.4863 15.02503372106236
STARLINK-30384          
1 57774U 23134D   25212.61947227 -.00000660  00000+0 -33790-4 0  9992
2 57774  43.0042 318.9931 0001353 263.8490  96.2198 15.02535557106216
STARLINK-30305          
1 57775U 23134E   25212.62279599  .00000389  00000+0  43891-4 0  9993
2 57775  43.0033 319.0197 0001251 273.5898  86.4801 15.02539837106217
STARLINK-30360          
1 57776U 23134F   25212.74909070 -.00000188  00000+0  11877-5 0  9999
2 57776  43.0031 318.2456 0001122 267.8934  92.1780 15.02542039106239
STARLINK-30355          
1 57777U 23134G   25212.60947792  .00000834  00000+0  76839-4 0  9993
2 57777  43.0031 318.8905 0000834 145.8969 214.1927 15.02532046106200
STARLINK-30385          
1 57778U 23134H   25212.96213798  .00013106  00000+0  98457-3 0  9990
2 57778  43.0033 304.4103 0000965 285.0551  75.0184 15.02494149106258
STARLINK-30359          
1 57779U 23134J   25212.95547577 -.00000335  00000+0 -97444-5 0  9994
2 57779  43.0021 304.3953 0000732 280.4006  79.6754 15.02532243106244
STARLINK-30380          
1 57780U 23134K   25212.64931093 -.00007999  00000+0 -57710-3 0  9995
2 57780  43.0050 318.3499 0001732 262.3920  97.6726 15.02574415106227
STARLINK-30369          
1 57781U 23134L   25212.60614998  .00002080  00000+0  16903-3 0  9997
2 57781  43.0035 318.8816 0000686 249.4003 110.6765 15.02526567106217
STARLINK-30376          
1 57782U 23134M   25212.65265418  .00000259  00000+0  34276-4 0  9992
2 57782  43.0047 318.3878 0001391 276.6220  83.4464 15.02532180106223
STARLINK-30389          
1 57783U 23134N   25212.59948888  .00000095  00000+0  22120-4 0  9998
2 57783  43.0029 318.8431 0000751 245.3757 114.7007 15.02550473105978
STARLINK-30388          
1 57784U 23134P   25212.59616239  .00000335  00000+0  39879-4 0  9997
2 57784  43.0042 318.8174 0001301 265.8755  94.1939 15.02536548106215
STARLINK-30381          
1 57785U 23134Q   25212.97171140 -.00001200  00000+0 -73759-4 0  9996
2 57785  43.0057 316.3817 0001577 261.5692  98.4972 15.02530532106207
STARLINK-30382          
1 57786U 23134R   25212.59283363 -.00000069  00000+0  99860-5 0  9999
2 57786  43.0038 318.7936 0000723 253.7629 106.3134 15.02534079105972
